STARLINK-33709          
1 63419U 25065W   25151.29608231  .00000726  00000+0  24649-4 0  9999
2 63419  43.0014 265.1077 0001900 244.3848 115.6812 15.40700271  9615
STARLINK-33698          
1 63420U 25065X   25151.57493789 -.00001135  00000+0 -19914-4 0  9998
2 63420  43.0000 262.0179 0001947 276.8306  83.2329 15.40696757 10293
STARLINK-33606          
1 63421U 25065Y   25151.57766983 -.00001668  00000+0 -32690-4 0  9995
2 63421  43.0002 262.9110 0000388 213.0343 147.0489 15.40706212 10296
STARLINK-33686          
1 63422U 25065Z   25151.57990932  .00051408  00000+0  12301-2 0  9999
2 63422  43.0023 262.9303 0001332 257.3434 102.7274 15.40688584 10309
STARLINK-33675          
1 63423U 25065AA  25151.58662918  .00042493  00000+0  10182-2 0  9990
2 63423  42.9983 262.9810 0001135 245.4126 114.6612 15.40718979  9660
STARLINK-33655          
1 63424U 25065AB  25151.57717390  .00031674  00000+0  76228-3 0  9998
2 63424  43.0020 262.0359 0001647 272.0883  87.9785 15.40702676 10301
STARLINK-33608          
1 63425U 25065AC  25151.35804604  .00000643  00000+0  22646-4 0  9998
2 63425  43.0010 262.9648 0001329 277.7258  82.3448 15.40705214  9647
STARLINK-33615          
1 63426U 25065AD  25151.59335131 -.00001557  00000+0 -30018-4 0  9998
2 63426  43.0018 263.0311 0000673 225.5679 134.5123 15.40700598  9666
STARLINK-33682          
1 63433U 25069A   25151.84855119 -.00021448  00000+0 -52455-3 0  9990
2 63433  53.1629  18.7021 0009515 182.4753 177.6207 15.39742766 10153
STARLINK-33710          
1 63434U 25069B   25151.85346652  .00001985  00000+0  59552-4 0  9997
2 63434  53.1624  18.7310 0001146  76.0240 284.0892 15.39636074 10147
STARLINK-33733          
1 63435U 25069C   25151.84419156  .00000307  00000+0  17655-4 0  9992
2 63435  53.1620  18.6739 0001137  84.3073 275.8061 15.39622901 10100
STARLINK-33638          
1 63436U 25069D   25151.83490411 -.00000503  00000+0 -25849-5 0  9990
2 63436  53.1631  18.6141 0001148  69.8334 290.2795 15.39626372 10145
STARLINK-33726          
1 63437U 25069E   25151.84879842 -.00001337  00000+0 -23459-4 0  9991
2 63437  53.1618  18.7005 0000834 114.8749 245.2343 15.39620154 10100
STARLINK-33681          
1 63438U 25069F   25151.83955074  .00002549  00000+0  73709-4 0  9990
2 63438  53.1612  18.6435 0000575 102.2205 257.8865 15.39608472 10142
