[
  {
    "OBJECT_NAME": "STARLINK-33709",
    "OBJECT_ID": "2025-065W",
    "EPOCH": "2025-05-31T07:06:21.511584",
    "MEAN_MOTION": 15.40700271,
    "ECCENTRICITY": 0.00019,
    "INCLINATION": 43.0014,
    "RA_OF_ASC_NODE": 265.1077,
    "ARG_OF_PERICENTER": 244.3848,
    "MEAN_ANOMALY": 115.6812,
    "EPHEMERIS_TYPE": 0,
    "CLASSIFICATION_TYPE": "U",
    "NORAD_CAT_ID": 63419,
    "ELEMENT_SET_NO": 999,
    "REV_AT_EPOCH": 961,
    "BSTAR": 2.4649e-05,
    "MEAN_MOTION_DOT": 7.26e-06,
    "MEAN_MOTION_DDOT": 0
  },
  {
    "OBJECT_NAME": "STARLINK-33698",
    "OBJECT_ID": "2025-065X",
    "EPOCH": "2025-05-31T13:47:54.633696",
    "MEAN_MOTION": 15.40696757,
    "ECCENTRICITY": 0.0001947,
    "INCLINATION": 43,
    "RA_OF_ASC_NODE": 262.0179,
    "ARG_OF_PERICENTER": 276.8306,
    "MEAN_ANOMALY": 83.2329,
    "EPHEMERIS_TYPE": 0,
    "CLASSIFICATION_TYPE": "U",
    "NORAD_CAT_ID": 63420,
    "ELEMENT_SET_NO": 999,
    "REV_AT_EPOCH": 1029,
    "BSTAR": -1.9914e-05,
    "MEAN_MOTION_DOT": -1.135e-05,
    "MEAN_MOTION_DDOT": 0
  },
  {
    "OBJECT_NAME": "STARLINK-33606",
    "OBJECT_ID": "2025-065Y",
    "EPOCH": "2025-05-31T13:51:50.673312",
    "MEAN_MOTION": 15.40706212,
    "ECCENTRICITY": 3.88e-05,
    "INCLINATION": 43.0002,
    "RA_OF_ASC_NODE": 262.911,
    "ARG_OF_PERICENTER": 213.0343,
    "MEAN_ANOMALY": 147.0489,
    "EPHEMERIS_TYPE": 0,
    "CLASSIFICATION_TYPE": "U",
    "NORAD_CAT_ID": 63421,
    "ELEMENT_SET_NO": 999,
    "REV_AT_EPOCH": 1029,
    "BSTAR": -3.269e-05,
    "MEAN_MOTION_DOT": -1.668e-05,
    "MEAN_MOTION_DDOT": 0
  },
  {
    "OBJECT_NAME": "STARLINK-33686",
    "OBJECT_ID": "2025-065Z",
    "EPOCH": "2025-05-31T13:55:04.165248",
    "MEAN_MOTION": 15.40688584,
    "ECCENTRICITY": 0.0001332,
    "INCLINATION": 43.0023,
    "RA_OF_ASC_NODE": 262.9303,
    "ARG_OF_PERICENTER": 257.3434,
    "MEAN_ANOMALY": 102.7274,
    "EPHEMERIS_TYPE": 0,
    "CLASSIFICATION_TYPE": "U",
    "NORAD_CAT_ID": 63422,
    "ELEMENT_SET_NO": 999,
    "REV_AT_EPOCH": 1030,
    "BSTAR": 0.0012301,
    "MEAN_MOTION_DOT": 0.00051408,
    "MEAN_MOTION_DDOT": 0
  },
  {
    "OBJECT_NAME": "STARLINK-33675",
    "OBJECT_ID": "2025-065AA",
    "EPOCH": "2025-05-31T14:04:44.761152",
    "MEAN_MOTION": 15.40718979,
    "ECCENTRICITY": 0.0001135,
    "INCLINATION": 42.9983,
    "RA_OF_ASC_NODE": 262.981,
    "ARG_OF_PERICENTER": 245.4126,
    "MEAN_ANOMALY": 114.6612,
    "EPHEMERIS_TYPE": 0,
    "CLASSIFICATION_TYPE": "U",
    "NORAD_CAT_ID": 63423,
    "ELEMENT_SET_NO": 999,
    "REV_AT_EPOCH": 966,
    "BSTAR": 0.0010182,
    "MEAN_MOTION_DOT": 0.00042493,
    "MEAN_MOTION_DDOT": 0
  },
  {
    "OBJECT_NAME": "STARLINK-33655",
    "OBJECT_ID": "2025-065AB",
    "EPOCH": "2025-05-31T13:51:07.824960",
    "MEAN_MOTION": 15.40702676,
    "ECCENTRICITY": 0.0001647,
    "INCLINATION": 43.002,
    "RA_OF_ASC_NODE": 262.0359,
    "ARG_OF_PERICENTER": 272.0883,
    "MEAN_ANOMALY": 87.9785,
    "EPHEMERIS_TYPE": 0,
    "CLASSIFICATION_TYPE": "U",
    "NORAD_CAT_ID": 63424,
    "ELEMENT_SET_NO": 999,
    "REV_AT_EPOCH": 1030,
    "BSTAR": 0.00076228,
    "MEAN_MOTION_DOT": 0.00031674,
    "MEAN_MOTION_DDOT": 0
  },
  {
    "OBJECT_NAME": "STARLINK-33608",
    "OBJECT_ID": "2025-065AC",
    "EPOCH": "2025-05-31T08:35:35.177856",
    "MEAN_MOTION": 15.40705214,
    "ECCENTRICITY": 0.0001329,
    "INCLINATION": 43.001,
    "RA_OF_ASC_NODE": 262.9648,
    "ARG_OF_PERICENTER": 277.7258,
    "MEAN_ANOMALY": 82.3448,
    "EPHEMERIS_TYPE": 0,
    "CLASSIFICATION_TYPE": "U",
    "NORAD_CAT_ID": 63425,
    "ELEMENT_SET_NO": 999,
    "REV_AT_EPOCH": 964,
    "BSTAR": 2.2646e-05,
    "MEAN_MOTION_DOT": 6.43e-06,
    "MEAN_MOTION_DDOT": 0
  },
  {
    "OBJECT_NAME": "STARLINK-33615",
    "OBJECT_ID": "2025-065AD",
    "EPOCH": "2025-05-31T14:14:25.553184",
    "MEAN_MOTION": 15.40700598,
    "ECCENTRICITY": 6.73e-05,
    "INCLINATION": 43.0018,
    "RA_OF_ASC_NODE": 263.0311,
    "ARG_OF_PERICENTER": 225.5679,
    "MEAN_ANOMALY": 134.5123,
    "EPHEMERIS_TYPE": 0,
    "CLASSIFICATION_TYPE": "U",
    "NORAD_CAT_ID": 63426,
    "ELEMENT_SET_NO": 999,
    "REV_AT_EPOCH": 966,
    "BSTAR": -3.0018e-05,
    "MEAN_MOTION_DOT": -1.557e-05,
    "MEAN_MOTION_DDOT": 0
  },
  {
    "OBJECT_NAME": "STARLINK-33682",
    "OBJECT_ID": "2025-069A",
    "EPOCH": "2025-05-31T20:21:54.822816",
    "MEAN_MOTION": 15.39742766,
    "ECCENTRICITY": 0.0009515,
    "INCLINATION": 53.1629,
    "RA_OF_ASC_NODE": 18.7021,
    "ARG_OF_PERICENTER": 182.4753,
    "MEAN_ANOMALY": 177.6207,
    "EPHEMERIS_TYPE": 0,
    "CLASSIFICATION_TYPE": "U",
    "NORAD_CAT_ID": 63433,
    "ELEMENT_SET_NO": 999,
    "REV_AT_EPOCH": 1015,
    "BSTAR": -0.00052455,
    "MEAN_MOTION_DOT": -0.00021448,
    "MEAN_MOTION_DDOT": 0
  },
  {
    "OBJECT_NAME": "STARLINK-33710",
    "OBJECT_ID": "2025-069B",
    "EPOCH": "2025-05-31T20:28:59.507328",
    "MEAN_MOTION": 15.39636074,
    "ECCENTRICITY": 0.0001146,
    "INCLINATION": 53.1624,
    "RA_OF_ASC_NODE": 18.731,
    "ARG_OF_PERICENTER": 76.024,
    "MEAN_ANOMALY": 284.0892,
    "EPHEMERIS_TYPE": 0,
    "CLASSIFICATION_TYPE": "U",
    "NORAD_CAT_ID": 63434,
    "ELEMENT_SET_NO": 999,
    "REV_AT_EPOCH": 1014,
    "BSTAR": 5.9552e-05,
    "MEAN_MOTION_DOT": 1.985e-05,
    "MEAN_MOTION_DDOT": 0
  },
  {
    "OBJECT_NAME": "STARLINK-33733",
    "OBJECT_ID": "2025-069C",
    "EPOCH": "2025-05-31T20:15:38.150784",
    "MEAN_MOTION": 15.39622901,
    "ECCENTRICITY": 0.0001137,
    "INCLINATION": 53.162,
    "RA_OF_ASC_NODE": 18.6739,
    "ARG_OF_PERICENTER": 84.3073,
    "MEAN_ANOMALY": 275.8061,
    "EPHEMERIS_TYPE": 0,
    "CLASSIFICATION_TYPE": "U",
    "NORAD_CAT_ID": 63435,
    "ELEMENT_SET_NO": 999,
    "REV_AT_EPOCH": 1010,
    "BSTAR": 1.7655e-05,
    "MEAN_MOTION_DOT": 3.07e-06,
    "MEAN_MOTION_DDOT": 0
  },
  {
    "OBJECT_NAME": "STARLINK-33638",
    "OBJECT_ID": "2025-069D",
    "EPOCH": "2025-05-31T20:02:15.715104",
    "MEAN_MOTION": 15.39626372,
    "ECCENTRICITY": 0.0001148,
    "INCLINATION": 53.1631,
    "RA_OF_ASC_NODE": 18.6141,
    "ARG_OF_PERICENTER": 69.8334,
    "MEAN_ANOMALY": 290.2795,
    "EPHEMERIS_TYPE": 0,
    "CLASSIFICATION_TYPE": "U",
    "NORAD_CAT_ID": 63436,
    "ELEMENT_SET_NO": 999,
    "REV_AT_EPOCH": 1014,
    "BSTAR": -2.5849e-06,
    "MEAN_MOTION_DOT": -5.03e-06,
    "MEAN_MOTION_DDOT": 0
  },
  {
    "OBJECT_NAME": "STARLINK-33726",
    "OBJECT_ID": "2025-069E",
    "EPOCH": "2025-05-31T20:22:16.183488",
    "MEAN_MOTION": 15.39620154,
    "ECCENTRICITY": 8.34e-05,
    "INCLINATION": 53.1618,
    "RA_OF_ASC_NODE": 18.7005,
    "ARG_OF_PERICENTER": 114.8749,
    "MEAN_ANOMALY": 245.2343,
    "EPHEMERIS_TYPE": 0,
    "CLASSIFICATION_TYPE": "U",
    "NORAD_CAT_ID": 63437,
    "ELEMENT_SET_NO": 999,
    "REV_AT_EPOCH": 1010,
    "BSTAR": -2.3459e-05,
    "MEAN_MOTION_DOT": -1.337e-05,
    "MEAN_MOTION_DDOT": 0
  },
  {
    "OBJECT_NAME": "STARLINK-33681",
    "OBJECT_ID": "2025-069F",
    "EPOCH": "2025-05-31T20:08:57.183936",
    "MEAN_MOTION": 15.39608472,
    "ECCENTRICITY": 5.75e-05,
    "INCLINATION": 53.1612,
    "RA_OF_ASC_NODE": 18.6435,
    "ARG_OF_PERICENTER": 102.2205,
    "MEAN_ANOMALY": 257.8865,
    "EPHEMERIS_TYPE": 0,
    "CLASSIFICATION_TYPE": "U",
    "NORAD_CAT_ID": 63438,
    "ELEMENT_SET_NO": 999,
    "REV_AT_EPOCH": 1014,
    "BSTAR": 7.3709e-05,
    "MEAN_MOTION_DOT": 2.549e-05,
    "MEAN_MOTION_DDOT": 0
  }
]